[{"OBJECT_NAME":"ONEWEB-0530","OBJECT_ID":"2023-029A","EPOCH":"2026-03-09T20:22:37.983072","MEAN_MOTION":13.20770637,"ECCENTRICITY":0.00013361,"INCLINATION":87.9161,"RA_OF_ASC_NODE":294.3137,"ARG_OF_PERICENTER":67.1134,"MEAN_ANOMALY":293.014,"EPHEMERIS_TYPE":0,"CLASSIFICATION_TYPE":"U","NORAD_CAT_ID":55796,"ELEMENT_SET_NO":999,"REV_AT_EPOCH":14803,"BSTAR":-0.00046135555,"MEAN_MOTION_DOT":-1.75e-6,"MEAN_MOTION_DDOT":0},{"OBJECT_NAME":"SL-8 R\/B","OBJECT_ID":"1968-011B","EPOCH":"2026-03-09T21:54:14.921280","MEAN_MOTION":13.18032414,"ECCENTRICITY":0.00139713,"INCLINATION":74.0473,"RA_OF_ASC_NODE":261.6495,"ARG_OF_PERICENTER":127.6658,"MEAN_ANOMALY":232.5701,"EPHEMERIS_TYPE":0,"CLASSIFICATION_TYPE":"U","NORAD_CAT_ID":3131,"ELEMENT_SET_NO":999,"REV_AT_EPOCH":79227,"BSTAR":-0.00016874239,"MEAN_MOTION_DOT":-8.5e-7,"MEAN_MOTION_DDOT":0}]
